STARLINK-30494          
1 57970U 23151G   26068.36049035 -.00001272  00000+0 -35691-4 0  9993
2 57970  43.0027 192.4566 0001155 241.5536 118.5200 15.28417441137406
STARLINK-31663          
1 59576U 24076N   26068.19315684 -.00001934  00000+0 -60810-4 0  9997
2 59576  43.0028  12.0711 0001489 274.3528  85.7154 15.27564134106427
